{
"type": "FeatureCollection",
"name": "vect_lines_sample",
"crs": { "type": "name", "properties": { "name": "urn:ogc:def:crs:OGC:1.3:CRS84" } },
"features": [
{ "type": "Feature", "properties": { }, "geometry": { "type": "LineString", "coordinates": [ [ -76.236404543451883, 2.560767766639238 ], [ -76.531243712348299, 2.940715149237708 ], [ -76.968943097101729, 2.898161042386679 ], [ -76.853439092791788, 2.758340405590442 ] ] } },
{ "type": "Feature", "properties": { }, "geometry": { "type": "LineString", "coordinates": [ [ -77.342811321578623, 2.730984194043352 ], [ -77.500869432739592, 2.609401031611842 ], [ -77.011497203952757, 2.110910065642649 ], [ -77.096605417654814, 1.968049849785624 ] ] } },
{ "type": "Feature", "properties": { }, "geometry": { "type": "LineString", "coordinates": [ [ -76.406620970855997, 1.338856984202557 ], [ -76.288077387485274, 1.493875516302733 ], [ -76.756172562846587, 1.74312099928733 ] ] } }
]
}
