{
"type": "FeatureCollection",
"name": "vect_pol_sample",
"crs": { "type": "name", "properties": { "name": "urn:ogc:def:crs:OGC:1.3:CRS84" } },
"features": [
{ "type": "Feature", "properties": { }, "geometry": { "type": "Polygon", "coordinates": [ [ [ -76.623950873702299, 1.969949586698617 ], [ -76.572278029668908, 2.134086855981156 ], [ -76.429417813811881, 2.197918016257699 ], [ -76.38382412790007, 2.322540757749997 ], [ -76.356467916352983, 2.410688550512843 ], [ -76.183211909888072, 2.368134443661814 ], [ -75.985639270936872, 2.474519710789385 ], [ -75.882293582870091, 2.510994659518839 ], [ -75.809343685411179, 2.708567298470043 ], [ -75.851897792262207, 2.811912986536827 ], [ -76.073787063699712, 2.936535728029125 ], [ -76.09202453806445, 3.085475102007726 ], [ -76.146736961158624, 3.210097843500024 ], [ -76.432457392872678, 3.289126899080506 ], [ -76.475011499723706, 3.16146457852742 ], [ -76.572278029668908, 3.10675215543324 ], [ -76.766811089559326, 3.103712576372452 ], [ -76.851919303261383, 3.146266683223481 ], [ -76.979581623814468, 3.124989629797966 ], [ -77.155877209340161, 3.118910471676391 ], [ -77.356489427352159, 3.124989629797966 ], [ -77.423360166689477, 3.17362289477057 ], [ -77.508468380391534, 3.17362289477057 ], [ -77.620932805640692, 3.061158469521423 ], [ -77.666526491552503, 2.890942042117309 ], [ -77.754674284315357, 2.760240142503435 ], [ -77.858019972382138, 2.659934033497439 ], [ -77.8671387095645, 2.489717606093325 ], [ -77.851940814260558, 2.298224125263696 ], [ -77.766832600558502, 2.231353385926365 ], [ -77.596616173154388, 2.228313806865577 ], [ -77.465914273540506, 2.31950117868921 ], [ -77.350410269230579, 2.295184546202908 ], [ -77.234906264920639, 2.161443067528246 ], [ -77.219708369616697, 2.055057800400674 ], [ -77.119402260610713, 1.945632954212315 ], [ -77.253143739285363, 1.726783261835596 ], [ -77.104204365306771, 1.708545787470869 ], [ -76.93094835884186, 1.732862419957172 ], [ -76.842800566079021, 1.693347892166931 ], [ -76.769850668620109, 1.611279257525661 ], [ -76.861038040443745, 1.438023251060759 ], [ -76.617871715580733, 1.486656516033363 ], [ -76.554040555304184, 1.39546914420973 ], [ -76.517565606574749, 1.181178820424193 ], [ -76.50540729033159, 1.100629975313317 ], [ -76.427898024281504, 1.030719656915199 ], [ -76.272879492181332, 1.020081130202442 ], [ -76.177132751766507, 1.044397762688744 ], [ -76.291116966546056, 1.108228922965287 ], [ -76.34582938964023, 1.208535031971283 ], [ -76.245523280634245, 1.390909775618549 ], [ -76.221206648147941, 1.538329360066755 ], [ -76.260721175938173, 1.623437573768812 ], [ -76.440056340524649, 1.659912522498265 ], [ -76.552520765773806, 1.781495684929776 ], [ -76.623950873702299, 1.969949586698617 ] ] ] } }
]
}
